STARS (KUKAI)           
1 33498U 09002G   26192.30068159  .00001524  00000+0  14176-3 0  9993
2 33498  98.1554 140.5970 0009960  89.7952 270.4409 14.95913213942088
KKS-1 (KISEKI)          
1 33499U 09002H   26192.47647765  .00000675  00000+0  89496-4 0  9992
2 33499  98.1178 115.3036 0007116 201.6793 158.4120 14.83183786939793
UK-DMC 2                
1 35683U 09041C   26192.56196830  .00000460  00000+0  73893-4 0  9990
2 35683  97.8858 326.9371 0001494 101.1902 258.9476 14.76091741910163
OCEANSAT-2              
1 35931U 09051A   26192.50480873 -.00000140  00000+0 -70227-4 0  9999
2 35931  98.2318 176.9285 0017105 164.1699 196.0006 13.99656597882732
SWISSCUBE               
1 35932U 09051B   26192.18281227  .00000531  00000+0  11450-3 0  9990
2 35932  98.4014 100.4874 0007656 129.8333 230.3542 14.62526269892660
BEESAT-1                
1 35933U 09051C   26192.20478775  .00000437  00000+0  97507-4 0  9993
2 35933  98.3941 100.0947 0005911 140.2385 219.9249 14.61758109892691
ITUPSAT1                
1 35935U 09051E   26191.18906354  .00000448  00000+0  10253-3 0  9994
2 35935  98.4025  98.2308 0007739 157.5053 202.6487 14.60474362892091
DMSP 5D-3 F18 (USA 210) 
1 35951U 09057A   26192.46727213  .00000180  00000+0  11606-3 0  9991
2 35951  98.9053 173.1854 0011004 175.9454 184.1810 14.14910097863027
PROBA-2                 
1 36037U 09059B   26192.44940836  .00000104  00000+0  34681-4 0  9990
2 36037  98.2457  15.4667 0012742 200.5903 159.4782 14.54872679885055
YAOGAN-7                
1 36110U 09069A   26189.61704388  .00000339  00000+0  54067-4 0  9998
2 36110  98.0044  75.3492 0023935 333.3807  26.6172 14.78031471892792
XIWANG-1 (HOPE-1)       
1 36122U 09072B   26192.48760074 -.00000390  00000+0 -90435-3 0  9995
2 36122 100.4029 145.9325 0007421 173.0388 187.0829 13.16438201796203
COSMOS 2463             
1 36519U 10017A   26192.49115227  .00000049  00000+0  37285-4 0  9995
2 36519  82.9584 231.8491 0037445  63.8643  48.3935 13.71667077811268
CARTOSAT-2B             
1 36795U 10035A   26192.49815499  .00000711  00000+0  10411-3 0  9996
2 36795  97.9946 242.8907 0012512 109.8331 250.4230 14.78615367863443
TISAT 1                 
1 36799U 10035E   26192.28125931  .00012730  00000+0  40645-3 0  9998
2 36799  98.0705 140.9857 0004200 128.1022 232.0597 15.32633143871398
YAOGAN-10               
1 36834U 10038A   26192.54629156  .00000690  00000+0  86348-4 0  9991
2 36834  97.8977 215.7562 0001661  81.2790  41.4423 14.85421636860824
SHIJIAN-6 04B (SJ-6 04B)
1 37180U 10051B   26192.51540278  .00000669  00000+0  59710-4 0  9994
2 37180  97.8744 198.1851 0007285 224.3055 135.7585 14.99384061859322
FENGYUN 3B              
1 37214U 10059A   26192.57261396  .00000446  00000+0  25395-3 0  9991
2 37214  98.9613 238.6890 0023063 116.4133   7.7566 14.14847605810879
COSMO-SKYMED 4          
1 37216U 10060A   26192.47748193  .00000624  00000+0  84970-4 0  9992
2 37216  97.8896  15.7261 0001513  86.1257 274.0129 14.82148387848167
O/OREOS (USA 219)       
1 37224U 10062C   26190.96510575  .00001388  00000+0  13649-3 0  9998
2 37224  71.9708  28.7386 0013679  15.3805 344.7778 14.93839355120041
RESOURCESAT-2           
1 37387U 11015A   26192.44147084  .00000010  00000+0  24568-4 0  9997
2 37387  98.7633 259.7144 0011373 181.6176 178.4966 14.21605339789620
YOUTHSAT                
1 37388U 11015B   26192.52007663  .00000087  00000+0  54353-4 0  9994
2 37388  98.3700 165.4791 0013157 271.0047 200.1826 14.25639667791105
APRIZESAT 6             
1 37793U 11044F   26192.21633218  .00000423  00000+0  67179-4 0  9997
2 37793  98.2343 103.2048 0043385  10.9568 150.0729 14.76953133800699
JUGNU                   
1 37839U 11058B   26192.23374851  .00000361  00000+0  48953-4 0  9990
2 37839  19.9591 162.3323 0018443 342.6467 134.7204 14.13782829762436
SRMSAT                  
1 37841U 11058D   26192.32393388  .00000351  00000+0  46525-4 0  9991
2 37841  19.9716 273.3792 0011857 108.9537 302.7584 14.11580564761239
SUOMI NPP               
1 37849U 11061A   26192.51722396  .00000023  00000+0  32029-4 0  9999
2 37849  98.7956 133.2277 0000601 238.5697 121.5420 14.19522179761896
YAOGAN-12               
1 37875U 11066B   26192.18841178  .00002904  00000+0  11248-3 0  9995
2 37875  97.1134 229.6296 0010788 134.5663 225.6460 15.26868362815708
